ONEWEB-0683             
1 56719U 23068K   25281.15353949  .00000152  00000+0  37004-3 0  9998
2 56719  87.8989 309.4786 0002135  91.9880 268.1495 13.15546364116283
ONEWEB-0684             
1 56720U 23068L   25281.00934763  .00000122  00000+0  29074-3 0  9998
2 56720  87.8982 309.5036 0002180 135.0129 225.1178 13.15547594116099
ONEWEB-0686             
1 56721U 23068M   25281.23775533  .00000042  00000+0  77264-4 0  9998
2 56721  87.8958 278.9988 0002163  93.3568 266.7810 13.16594287118562
ONEWEB-0694             
1 56722U 23068N   25281.28051058  .00000032  00000+0  50030-4 0  9994
2 56722  87.8978 278.9247 0002275  85.6438 274.4953 13.16594019118621
ONEWEB-0696             
1 56723U 23068P   25281.11868176 -.00000055  00000+0 -18080-3 0  9999
2 56723  87.8981 309.5375 0001692 102.2800 257.8520 13.15548133116224
ONEWEB-0703             
1 56724U 23068Q   25281.12819140 -.00000043  00000+0 -14735-3 0  9998
2 56724  87.8975 309.5191 0000816 114.0290 246.0926 13.15547961116111
ONEWEB-0721             
1 56725U 23068R   25281.19292557  .00000110  00000+0  22997-3 0  9995
2 56725  86.6855 165.8706 0001641  74.4643 285.6671 13.22447305124630
ONEWEB-0015             
1 61594U 24188A   25281.14862926 -.00000426  00000+0 -12373-2 0  9995
2 61594  87.8806  71.2992 0001632  71.7201 288.4105 13.11417585 51420
